NORAD_CAT_ID,OBJECT_NAME,OBJECT_TYPE,EPOCH,MEAN_MOTION,ECCENTRICITY,INCLINATION,RA_OF_ASC_NODE,ARG_OF_PERICENTER,MEAN_ANOMALY,BSTAR,MEAN_MOTION_DOT,MEAN_MOTION_DDOT,TLE_LINE0,TLE_LINE1,TLE_LINE2,SEMIMAJOR_AXIS,PERIOD,APOGEE,PERIGEE,DECAYED
53150.0,STARLINK-4038,PAYLOAD,2022-09-07 22:00:00,15.499158,0.0001431999999999,53.214,148.8646,57.6453,108.112,-0.0019896,-0.00111897,0.0,0 STARLINK-4038,1 53150U 22083U   22250.91667824 -.00111897  00000-0 -19896-2 0  9997,2 53150  53.2140 148.8646 0001432  57.6453 108.1120 15.49915800  1307,6795.109,92.908,417.947,416.001,0.0
53150.0,STARLINK-4038,PAYLOAD,2022-09-08 06:00:00,15.49869526,0.0001422,53.2137,147.2721,54.1685,172.5533,0.00032562,0.00018062,0.0,0 STARLINK-4038,1 53150U 22083U   22251.25001157  .00018062  00000-0  32562-3 0  9990,2 53150  53.2137 147.2721 0001422  54.1685 172.5533 15.49869526  8929,6795.244000000002,92.911,418.076,416.143,0.0
53150.0,STARLINK-4038,PAYLOAD,2022-09-08 14:00:01,15.49851128,0.0001279,53.2141,145.6772,63.8526,223.7737,0.0010545,0.00059784,0.0,0 STARLINK-4038,1 53150U 22083U   22251.58334491  .00059784  00000-0  10545-2 0  9998,2 53150  53.2141 145.6772 0001279  63.8526 223.7737 15.49851128  1302,6795.2980000000025,92.912,418.032,416.294,0.0
53150.0,STARLINK-4038,PAYLOAD,2022-09-08 22:00:00,15.49904103,0.0001378,53.2143,144.0855,58.9706,289.5564,-0.00029642,-0.00017249,0.0,0 STARLINK-4038,1 53150U 22083U   22251.91667824 -.00017249  00000-0 -29642-3 0  9995,2 53150  53.2143 144.0855 0001378  58.9706 289.5564 15.49904103  1304,6795.143,92.909,417.945,416.072,0.0
53150.0,STARLINK-4038,PAYLOAD,2022-09-09 04:00:00,15.49904325,0.0001339,53.2144,142.8915,50.5034,253.7211,-0.00055335,-0.00031751,0.0,0 STARLINK-4038,1 53150U 22083U   22252.16667824 -.00031751  00000-0 -55335-3 0  9995,2 53150  53.2144 142.8915 0001339  50.5034 253.7211 15.49904325  9066,6795.143,92.909,417.918,416.098,0.0
53150.0,STARLINK-4038,PAYLOAD,2022-09-09 14:00:01,15.49831883,0.0001113,53.2145,140.8979,57.0125,53.3681,0.0009670999999999,0.00054718,0.0,0 STARLINK-4038,1 53150U 22083U   22252.58334491  .00054718  00000-0  96710-3 0  9990,2 53150  53.2145 140.8979 0001113  57.0125  53.3681 15.49831883  1300,6795.354,92.913,417.976,416.463,0.0
53150.0,STARLINK-4038,PAYLOAD,2022-09-09 22:00:00,15.49874205,0.0001277,53.2147,139.3061,51.9978,119.2563,-0.00019825,-0.00011682,0.0,0 STARLINK-4038,1 53150U 22083U   22252.91667824 -.00011682  00000-0 -19825-3 0  9993,2 53150  53.2147 139.3061 0001277  51.9978 119.2563 15.49874205  1303,6795.231,92.911,417.963,416.228,0.0
53150.0,STARLINK-4038,PAYLOAD,2022-09-10 04:00:00,15.49856431,0.0001345,53.2144,138.1121,46.5195,80.4155,0.0009379,0.00053087,0.0,0 STARLINK-4038,1 53150U 22083U   22253.16667824  .00053087  00000-0  93790-3 0  9997,2 53150  53.2144 138.1121 0001345  46.5195  80.4155 15.49856431  9227,6795.283,92.912,418.062,416.234,0.0
53150.0,STARLINK-4038,PAYLOAD,2022-09-10 14:00:01,15.49865974,0.0001177999999999,53.2141,136.1186,56.4989,236.5729,0.0010438,0.00059199,0.0,0 STARLINK-4038,1 53150U 22083U   22253.58334491  .00059199  00000-0  10438-2 0  9991,2 53150  53.2141 136.1186 0001178  56.4989 236.5729 15.49865974  1302,6795.255,92.911,417.92,416.319,0.0
53150.0,STARLINK-4038,PAYLOAD,2022-09-10 22:00:00,15.49906251,0.0001346,53.2138,134.5272,51.6174,302.366,-0.00024708,-0.00014459,0.0,0 STARLINK-4038,1 53150U 22083U   22253.91667824 -.00014459  00000-0 -24708-3 0  9995,2 53150  53.2138 134.5272 0001346  51.6174 302.3660 15.49906251  1306,6795.137,92.909,417.917,416.087,0.0
53150.0,STARLINK-4038,PAYLOAD,2022-09-11 14:00:01,15.49865622,0.0001333,53.2132,131.339,64.4715,51.4144,0.00045895,0.00025664,0.0,0 STARLINK-4038,1 53150U 22083U   22254.58334491  .00025664  00000-0  45895-3 0  9998,2 53150  53.2132 131.3390 0001333  64.4715  51.4144 15.49865622  1300,6795.255999999999,92.911,418.027,416.215,0.0
53150.0,STARLINK-4038,PAYLOAD,2022-09-11 20:00:01,15.49891245,0.0001468,53.2145,130.1432,62.5552,9.003,-0.00016732,-9.938e-05,0.0,0 STARLINK-4038,1 53150U 22083U   22254.83334491 -.00009938  00000-0 -16732-3 0  9992,2 53150  53.2145 130.1432 0001468  62.5552   9.0030 15.49891245  9485,6795.181,92.91,418.043,416.048,0.0
53150.0,STARLINK-4038,PAYLOAD,2022-09-11 22:00:00,15.49912897,0.0001503,53.2147,129.7439,62.5882,114.1956,-0.0012163,-0.00068947,0.0,0 STARLINK-4038,1 53150U 22083U   22254.91667824 -.00068947  00000-0 -12163-2 0  9998,2 53150  53.2147 129.7439 0001503  62.5882 114.1956 15.49912897  1309,6795.118,92.908,418.004,415.961,0.0
53150.0,STARLINK-4038,PAYLOAD,2022-09-12 04:00:00,15.49970513,0.0001386999999999,53.2151,128.5453,59.182,73.2829,-0.011191,-0.0059159999999999,0.0,0 STARLINK-4038,1 53150U 22083U   22255.16667824 -.00591600  00000-0 -11191-1 0  9992,2 53150  53.2151 128.5453 0001387  59.1820  73.2829 15.49970513  9537,6794.949000000001,92.905,417.757,415.872,0.0
53150.0,STARLINK-4038,PAYLOAD,2022-09-12 14:00:01,15.49617072,0.0001137,53.2172,126.5441,61.1008,237.2336,-0.020794,-0.01061182,0.0,0 STARLINK-4038,1 53150U 22083U   22255.58334491 -.01061182  00000-0 -20794-1 0  9996,2 53150  53.2172 126.5441 0001137  61.1008 237.2336 15.49617072  1309,6795.982,92.926,418.62,417.075,0.0
53150.0,STARLINK-4038,PAYLOAD,2022-09-12 20:00:01,15.49043598,0.0001373,53.2174,125.3489,60.8158,192.765,-0.021096,-0.01055538,0.0,0 STARLINK-4038,1 53150U 22083U   22255.83335648 -.01055538  00000-0 -21096-1 0  9993,2 53150  53.2174 125.3489 0001373  60.8158 192.7650 15.49043598  9638,6797.66,92.961,420.458,418.591,0.0
53150.0,STARLINK-4038,PAYLOAD,2022-09-12 22:00:00,15.48905938,0.0001225,53.2166,124.9528,64.8928,293.5377,-0.022618,-0.0111935,0.0,0 STARLINK-4038,1 53150U 22083U   22255.91667824 -.01119350  00000-0 -22618-1 0  9990,2 53150  53.2166 124.9528 0001225  64.8928 293.5377 15.48905938  1309,6798.062,92.969,420.76,419.095,0.0
53150.0,STARLINK-4038,PAYLOAD,2022-09-13 14:00:01,15.47336276,0.0001276,53.2174,121.7644,68.7276,47.2504,-0.0224639999999999,-0.01058151,0.0,0 STARLINK-4038,1 53150U 22083U   22256.58334491 -.01058151  00000-0 -22464-1 0  9995,2 53150  53.2174 121.7644 0001276  68.7276  47.2504 15.47336276  1305,6802.659000000002,93.063,425.392,423.656,0.0
53150.0,STARLINK-4038,PAYLOAD,2022-09-13 16:00:00,15.47146092,0.0001329,53.2175,121.3671,76.1801,144.2302,-0.022575,-0.01056513,0.0,0 STARLINK-4038,1 53150U 22083U   22256.66667824 -.01056513  00000-0 -22575-1 0  9996,2 53150  53.2175 121.3671 0001329  76.1801 144.2302 15.47146092  9765,6803.215999999999,93.075,425.986,424.177,0.0
53150.0,STARLINK-4038,PAYLOAD,2022-09-13 22:00:00,15.46576083,0.0001612,53.2173,120.1767,49.7022,123.6635,-0.02303,-0.01056671,0.0,0 STARLINK-4038,1 53150U 22083U   22256.91667824 -.01056671  00000-0 -23030-1 0  9996,2 53150  53.2173 120.1767 0001612  49.7022 123.6635 15.46576083  1300,6804.888000000001,93.109,427.85,425.656,0.0
53150.0,STARLINK-4038,PAYLOAD,2022-09-14 14:00:01,15.4506316,0.0001373,53.2165,117.0027,52.8847,232.5154,-0.024394,-0.01061601,0.0,0 STARLINK-4038,1 53150U 22083U   22257.58334491 -.01061601  00000-0 -24394-1 0  9994,2 53150  53.2165 117.0027 0001373  52.8847 232.5154 15.45063160  9905,6809.329000000002,93.2,432.129,430.26,0.0
53150.0,STARLINK-4038,PAYLOAD,2022-09-14 22:00:00,15.44298718,0.0001286999999999,53.2168,115.421,56.4124,283.6421,-0.024978,-0.01059094,0.0,0 STARLINK-4038,1 53150U 22083U   22257.91667824 -.01059094  00000-0 -24978-1 0  9991,2 53150  53.2168 115.4210 0001287  56.4124 283.6421 15.44298718  1304,6811.576,93.246,434.318,432.565,0.0
53150.0,STARLINK-4038,PAYLOAD,2022-09-15 14:00:01,15.42797839,0.000153,53.2165,112.2558,46.6177,39.9898,-0.026817,-0.01093898,0.0,0 STARLINK-4038,1 53150U 22083U   22258.58334491 -.01093898  00000-0 -26817-1 0  9990,2 53150  53.2165 112.2558 0001530  46.6177  39.9898 15.42797839  1307,6815.993,93.337,438.901,436.816,0.0
53150.0,STARLINK-4038,PAYLOAD,2022-09-15 22:00:00,15.42019697,0.0001717,53.2173,110.6778,43.587,94.9441,-0.0269149999999999,-0.01071425,0.0,0 STARLINK-4038,1 53150U 22083U   22258.91667824 -.01071425  00000-0 -26915-1 0  9997,2 53150  53.2173 110.6778 0001717  43.5870  94.9441 15.42019697 10118,6818.286,93.384,441.322,438.981,0.0
53150.0,STARLINK-4038,PAYLOAD,2022-09-16 14:00:01,15.404996,0.0001474,53.2174,107.5237,56.6851,182.9346,-0.028234,-0.01068358,0.0,0 STARLINK-4038,1 53150U 22083U   22259.58334491 -.01068358  00000-0 -28234-1 0  9999,2 53150  53.2174 107.5237 0001474  56.6851 182.9346 15.40499600  1305,6822.771,93.476,445.641,443.63,0.0
53150.0,STARLINK-4038,PAYLOAD,2022-09-16 22:00:00,15.39740856,0.0001539,53.2173,105.9527,47.5439,241.2493,-0.0290139999999999,-0.01070382,0.0,0 STARLINK-4038,1 53150U 22083U   22259.91667824 -.01070382  00000-0 -29014-1 0  9992,2 53150  53.2173 105.9527 0001539  47.5439 241.2493 15.39740856 10268,6825.012,93.522,447.927,445.827,0.0
53150.0,STARLINK-4038,PAYLOAD,2022-09-17 14:00:01,15.38220037,0.0001357,53.2173,102.8096,50.5535,333.8528,-0.030397,-0.01066821,0.0,0 STARLINK-4038,1 53150U 22083U   22260.58334491 -.01066821  00000-0 -30397-1 0  9997,2 53150  53.2173 102.8096 0001357  50.5535 333.8528 15.38220037  1309,6829.51,93.615,452.302,450.448,0.0
53150.0,STARLINK-4038,PAYLOAD,2022-09-17 22:00:00,15.37463094,0.0001666999999999,53.2174,101.2437,40.0618,30.7793,-0.031309,-0.01071601,0.0,0 STARLINK-4038,1 53150U 22083U   22260.91667824 -.01071601  00000-0 -31309-1 0  9999,2 53150  53.2174 101.2437 0001667  40.0618  30.7793 15.37463094  1300,6831.751,93.661,454.755,452.477,0.0
53150.0,STARLINK-4038,PAYLOAD,2022-09-18 14:00:01,15.35941835,0.0001563,53.2175,98.1116,54.2246,106.8176,-0.032741,-0.01066968,0.0,0 STARLINK-4038,1 53150U 22083U   22261.58335648 -.01066968  00000-0 -32741-1 0  9990,2 53150  53.2175  98.1116 0001563  54.2246 106.8176 15.35941835  1300,6836.261,93.754,459.195,457.0580000000001,0.0
